{"type":"FeatureCollection","features":[
{"type":"Feature","geometry":{"type":"Point","coordinates":[135.9567381,35.0195687]},"properties":{"amenity":"place_of_worship","building":"temple","name":"円教時","religion":"buddhist"}},
{"type":"Feature","geometry":{"type":"Point","coordinates":[135.7334329,35.0403296]},"properties":{"amenity":"place_of_worship","building":"church","name":"カトリック衣笠教会","name:en":"Holy Spirit Catholic Church","religion":"christian","source":"survey"}},
{"type":"Feature","geometry":{"type":"Point","coordinates":[139.8466105,35.8475753]},"properties":{"amenity":"place_of_worship","building":"church","religion":"buddhist"}},
{"type":"Feature","geometry":{"type":"Point","coordinates":[133.7281057,34.2559798]},"properties":{"addr:block_number":"997","addr:city":"多度津町","addr:county":"仲多度郡","addr:housenumber":"1","addr:postcode":"764-0037","addr:province":"香川県","addr:quarter":"大字西白方","amenity":"place_of_worship","building":"temple","description":"四国別格二十霊場18番\n四国三十六不動31番\n讃岐十二支（卯）\n全国百八ヶ寺（訶）","name":"別格18番札所 屏風ヶ浦 海岸寺","name:en":"Bekkaku18 Kaigan-ji","name:ja":"別格18番札所 屏風ヶ浦 海岸寺","phone":"+81-877-33-3333","religion":"buddhist","wikidata":"Q11558884","wikipedia":"ja:海岸寺 (香川県多度津町)"}},
{"type":"Feature","geometry":{"type":"Point","coordinates":[139.7239162,35.2415752]},"properties":{"building":"shrine","name":"東叶神社 奥の院","religion":"shinto","source":"survey"}},
{"type":"Feature","geometry":{"type":"Point","coordinates":[139.9803148,35.7164632]},"properties":{"amenity":"place_of_worship","building":"church","name":"新船橋キリスト教会","religion":"christian"}},
{"type":"Feature","geometry":{"type":"Point","coordinates":[135.8277017,34.685208]},"properties":{"building":"shrine","name":"中筋神社","religion":"shinto"}},
{"type":"Feature","geometry":{"type":"Point","coordinates":[139.9586455,36.2501953]},"properties":{"building":"shrine","name":"大宮神社"}},
{"type":"Feature","geometry":{"type":"Point","coordinates":[140.196621,35.621269]},"properties":{"amenity":"place_of_worship","building":"church","name":"若葉キリスト教会","religion":"christian"}},
{"type":"Feature","geometry":{"type":"Point","coordinates":[141.0010845,37.2859887]},"properties":{"building":"shrine","name":"佐倉宗吾神社","religion":"shinto"}},
{"type":"Feature","geometry":{"type":"Point","coordinates":[140.9955095,37.2094138]},"properties":{"amenity":"place_of_worship","building":"shrine","religion":"shinto"}},
{"type":"Feature","geometry":{"type":"Point","coordinates":[131.5019672,33.2745495]},"properties":{"building":"church","name":"Catholic Beppu Church"}},
{"type":"Feature","geometry":{"type":"Point","coordinates":[135.7840359,34.6217037]},"properties":{"building":"shrine","religion":"shinto"}},
{"type":"Feature","geometry":{"type":"Point","coordinates":[135.7852446,34.6209843]},"properties":{"building":"shrine","name":"八幡宮"}},
{"type":"Feature","geometry":{"type":"Point","coordinates":[139.9416139,35.7182176]},"properties":{"amenity":"place_of_worship","building":"church","name":"インマヌエル市川キリスト教会","religion":"christian"}},
{"type":"Feature","geometry":{"type":"Point","coordinates":[139.6066301,35.3041744]},"properties":{"building":"temple","name":"神武寺 薬師堂","religion":"shinto"}},
{"type":"Feature","geometry":{"type":"Point","coordinates":[139.6065963,35.3038705]},"properties":{"building":"temple","name":"薬師堂 楼門","religion":"buddhist"}},
{"type":"Feature","geometry":{"type":"Point","coordinates":[140.0762266,36.173814900000007]},"properties":{"building":"shrine","name":"Inari Shrine"}},
{"type":"Feature","geometry":{"type":"Point","coordinates":[141.6188449,38.8730562]},"properties":{"amenity":"place_of_worship","building":"shrine","name":"愛宕神社","religion":"shinto"}},
{"type":"Feature","geometry":{"type":"Point","coordinates":[139.2257877,35.7793006]},"properties":{"amenity":"place_of_worship","building":"shrine","name":"神明神社","name:en":"Shinmei Shrine","religion":"shinto"}},
{"type":"Feature","geometry":{"type":"Point","coordinates":[137.3844089,34.7722338]},"properties":{"amenity":"place_of_worship","building":"shrine","name":"湊神明社","religion":"shinto"}},
{"type":"Feature","geometry":{"type":"Point","coordinates":[140.2059265,35.5441432]},"properties":{"amenity":"place_of_worship","building":"church","denomination":"protestant","name":"キリスト教会誉田チャペル","religion":"christian"}},
{"type":"Feature","geometry":{"type":"Point","coordinates":[139.9097055,35.6812654]},"properties":{"amenity":"place_of_worship","building":"shrine","name":"胡録神社","religion":"shinto","wikidata":"Q110895408"}},
{"type":"Feature","geometry":{"type":"Point","coordinates":[135.7337247,35.0258351]},"properties":{"amenity":"place_of_worship","building":"temple","name":"成願寺","religion":"buddhist"}},
{"type":"Feature","geometry":{"type":"Point","coordinates":[135.8402853,33.7599297]},"properties":{"amenity":"place_of_worship","building":"shrine","religion":"shinto","website":"http://wakayama-jinjacho.or.jp/jdb/sys/user/GetWjtTbl.php?JinjyaNo=8072"}},
{"type":"Feature","geometry":{"type":"Point","coordinates":[134.54284380000002,34.8634022]},"properties":{"amenity":"place_of_worship","building":"shrine","name":"大師堂","religion":"buddhist"}},
{"type":"Feature","geometry":{"type":"Point","coordinates":[139.732868,35.703714]},"properties":{"amenity":"place_of_worship","building":"church","name":"日本聖公会センター","religion":"christian"}},
{"type":"Feature","geometry":{"type":"Point","coordinates":[137.4089712,34.7604444]},"properties":{"building":"shrine","religion":"shinto"}},
{"type":"Feature","geometry":{"type":"Point","coordinates":[140.255295,36.2912281]},"properties":{"amenity":"place_of_worship","building":"chapel","religion":"shinto"}},
{"type":"Feature","geometry":{"type":"Point","coordinates":[139.7587058,35.7107212]},"properties":{"amenity":"place_of_worship","building":"shrine","name":"藤之森稲荷神社","name:en":"Fujinomori Inari Jinja","religion":"shinto","wikidata":"Q114825923"}},
{"type":"Feature","geometry":{"type":"Point","coordinates":[139.6181415,35.8829971]},"properties":{"building":"shrine"}},
{"type":"Feature","geometry":{"type":"Point","coordinates":[139.5725265,35.6947091]},"properties":{"amenity":"place_of_worship","building":"chapel","name":"ナザレ修道院","religion":"christian"}},
{"type":"Feature","geometry":{"type":"Point","coordinates":[134.0588433,34.6127152]},"properties":{"amenity":"place_of_worship","building":"shrine","name":"事代主神社","religion":"shinto"}},
{"type":"Feature","geometry":{"type":"Point","coordinates":[134.0588165,34.6127197]},"properties":{"amenity":"place_of_worship","building":"shrine","name":"金刀比羅宮","religion":"shinto"}},
{"type":"Feature","geometry":{"type":"Point","coordinates":[134.0587883,34.6127241]},"properties":{"amenity":"place_of_worship","building":"shrine","name":"忠魂社","religion":"shinto"}},
{"type":"Feature","geometry":{"type":"Point","coordinates":[134.0590807,34.6128444]},"properties":{"amenity":"place_of_worship","building":"shrine","name":"天神社","religion":"shinto"}},
{"type":"Feature","geometry":{"type":"Point","coordinates":[134.0589801,34.61267]},"properties":{"amenity":"place_of_worship","building":"shrine","name":"素戔嗚神社","religion":"shinto"}},
{"type":"Feature","geometry":{"type":"Point","coordinates":[134.0566352,34.5919037]},"properties":{"amenity":"place_of_worship","building":"shrine","historic":"wayside_shrine","name":"祇園宮","religion":"shinto"}},
{"type":"Feature","geometry":{"type":"Point","coordinates":[134.0612785,34.6020508]},"properties":{"amenity":"place_of_worship","building":"shrine","historic":"wayside_shrine","religion":"shinto"}},
{"type":"Feature","geometry":{"type":"Point","coordinates":[134.0611544,34.6020866]},"properties":{"amenity":"place_of_worship","building":"shrine","historic":"wayside_shrine","religion":"shinto"}},
{"type":"Feature","geometry":{"type":"Point","coordinates":[134.0886666,34.6085611]},"properties":{"amenity":"place_of_worship","building":"shrine","historic":"wayside_shrine","name":"牛神神社","religion":"shinto"}},
{"type":"Feature","geometry":{"type":"Point","coordinates":[144.0185138,43.7051656]},"properties":{"building":"temple"}},
{"type":"Feature","geometry":{"type":"Point","coordinates":[131.5807397,33.1912498]},"properties":{"amenity":"place_of_worship","building":"shrine","religion":"shinto"}},
{"type":"Feature","geometry":{"type":"Point","coordinates":[136.6186622,34.5372676]},"properties":{"amenity":"place_of_worship","building":"shrine","name":"竹神社","religion":"shinto"}},
{"type":"Feature","geometry":{"type":"Point","coordinates":[140.450709,40.5987207]},"properties":{"building":"temple","name":"長勝寺","name:en":"Chosho-Ji Temple","name:it":"Tempio Chosho-ji","name:ja":"長勝寺","name:ja-Latn":"Chōshō-ji","wikidata":"Q11651542","wikipedia":"ja:長勝寺 (弘前市)"}},
{"type":"Feature","geometry":{"type":"Point","coordinates":[139.742102,35.9814049]},"properties":{"amenity":"place_of_worship","building":"shrine","description":"八幡神社は本堂の他、敷地内に幾つかのお参りスポットがあります。","name":"春日部八幡神社拝殿","name:en":"Kasukabe Hachiman Jinja Haiden","religion":"shinto","website":"https://www.kasukabe-hachiman.jp/"}},
{"type":"Feature","geometry":{"type":"Point","coordinates":[135.9632336,35.0162538]},"properties":{"amenity":"place_of_worship","building":"church","denomination":"catholic","name":"草津カトリック教会","religion":"christian"}},
{"type":"Feature","geometry":{"type":"Point","coordinates":[136.9410329,35.1026282]},"properties":{"building":"temple","name":"八幡社","source":"survey"}},
{"type":"Feature","geometry":{"type":"Point","coordinates":[134.1050356,34.3440475]},"properties":{"amenity":"place_of_worship","building":"shrine","name":"大宮八幡神社","religion":"shinto"}},
{"type":"Feature","geometry":{"type":"Point","coordinates":[139.6659723,35.9345845]},"properties":{"amenity":"place_of_worship","building":"temple","name":"大圓寺","religion":"buddhist","wikidata":"Q111822023","wikipedia":"ja:大円寺 (さいたま市)"}},
{"type":"Feature","geometry":{"type":"Point","coordinates":[135.6692024,34.8937017]},"properties":{"amenity":"place_of_worship","building":"shrine","name":"東大寺春日神社","name:en":"Todaiji Kasuga Shrine","religion":"shinto"}},
{"type":"Feature","geometry":{"type":"Point","coordinates":[139.2640445,35.7782866]},"properties":{"amenity":"place_of_worship","building":"shrine","name":"天祖神社","name:en":"Tenso Shrine","religion":"shinto"}},
{"type":"Feature","geometry":{"type":"Point","coordinates":[138.6965973,35.2140328]},"properties":{"addr:block_number":"1165","addr:city":"富士市","addr:postcode":"417-0801","addr:province":"静岡県","addr:quarter":"大淵","amenity":"place_of_worship","building":"temple","denomination":"nichiren","name":"法仙寺","religion":"buddhist"}},
{"type":"Feature","geometry":{"type":"Point","coordinates":[138.7359733,35.164502]},"properties":{"addr:block_number":"1249","addr:city":"富士市","addr:postcode":"417-0826","addr:province":"静岡県","addr:quarter":"中里","amenity":"place_of_worship","building":"temple","denomination":"nichiren","name":"東光寺","religion":"buddhist"}},
{"type":"Feature","geometry":{"type":"Point","coordinates":[138.7351036,35.1641352]},"properties":{"addr:block_number":"1254","addr:city":"富士市","addr:housenumber":"2","addr:postcode":"417-0826","addr:province":"静岡県","addr:quarter":"中里","amenity":"place_of_worship","building":"temple","name":"本妙寺","religion":"buddhist"}},
{"type":"Feature","geometry":{"type":"Point","coordinates":[138.6972401,35.1697805]},"properties":{"amenity":"place_of_worship","building":"temple","denomination":"nichiren","name":"妙延寺","religion":"buddhist"}},
{"type":"Feature","geometry":{"type":"Point","coordinates":[138.7315173,35.1663433]},"properties":{"amenity":"place_of_worship","building":"temple","denomination":"soto","name":"慶昌院","religion":"buddhist"}},
{"type":"Feature","geometry":{"type":"Point","coordinates":[140.4907453,35.6747123]},"properties":{"addr:block_number":"483","addr:city":"横芝光町","addr:county":"山武郡","addr:province":"千葉県","addr:quarter":"虫生","amenity":"place_of_worship","building":"temple","denomination":"真言宗智山派","name":"広済寺","name:en":"Kōsai-ji","religion":"buddhist","wikidata":"Q11485526","wikipedia":"ja:広済寺 (千葉県横芝光町)"}},
{"type":"Feature","geometry":{"type":"Point","coordinates":[137.2023343,36.7584916]},"properties":{"amenity":"place_of_worship","building":"shrine","name":"西岩瀬諏訪社","religion":"shinto","wheelchair":"yes"}},
{"type":"Feature","geometry":{"type":"Point","coordinates":[136.5144734,35.1363591]},"properties":{"building":"temple","name":"圓福寺"}},
{"type":"Feature","geometry":{"type":"Point","coordinates":[127.69871,26.1938762]},"properties":{"amenity":"place_of_worship","building":"church","denomination":"protestant","email":"rinjinkyokai@ybb.ne.jp","fax":"+81 98-996-4531","name":"隣人キリスト教会","name:en":"Rinjin Neighborhood Christian Church","operator":"田中義弥","phone":"+81 98-996-4533","religion":"christian","service_times":"Su 10:30-12:00, 20:00-21:00","website":"http://rinjin777.jimdo.com","wheelchair":"limited"}},
{"type":"Feature","geometry":{"type":"Point","coordinates":[140.0693703,36.1038783]},"properties":{"amenity":"place_of_worship","building":"church","denomination":"adventist","name":"セベンスデイ・アドベンチストつくば学園キリスト教会","name:en":"Seventh-day Adventist Tsukuba Gakuen Church","name:ja":"セベンスデイ・アドベンチストつくば学園キリスト教会","opening_hours:covid19":"off","religion":"christian"}},
{"type":"Feature","geometry":{"type":"Point","coordinates":[135.3684414,34.7334461]},"properties":{"building":"temple","name":"澄心寺"}},
{"type":"Feature","geometry":{"type":"Point","coordinates":[133.6790919,33.5355333]},"properties":{"building":"shrine"}},
{"type":"Feature","geometry":{"type":"Point","coordinates":[139.7419744,35.9814752]},"properties":{"building":"shrine","name":"春日部八幡神社本殿","name:en":"Kasukabe Hachiman Jinja Honden"}},
{"type":"Feature","geometry":{"type":"Point","coordinates":[139.7990074,35.9791214]},"properties":{"amenity":"place_of_worship","building":"shrine","name":"永沼八幡神社拝殿","religion":"shinto"}},
{"type":"Feature","geometry":{"type":"Point","coordinates":[139.799068,35.979174]},"properties":{"amenity":"place_of_worship","building":"shrine","name":"永沼八幡神社本殿","religion":"shinto"}},
{"type":"Feature","geometry":{"type":"Point","coordinates":[139.7998733,35.9783839]},"properties":{"amenity":"place_of_worship","building":"shrine","name":"米島香取神社拝殿","religion":"shinto"}},
{"type":"Feature","geometry":{"type":"Point","coordinates":[139.7997839,35.9784327]},"properties":{"amenity":"place_of_worship","building":"shrine","name":"米島香取神社本殿","religion":"shinto"}},
{"type":"Feature","geometry":{"type":"Point","coordinates":[139.7928978,35.9696317]},"properties":{"amenity":"place_of_worship","building":"shrine","name":"水角神社拝殿"}},
{"type":"Feature","geometry":{"type":"Point","coordinates":[139.7928416,35.9696933]},"properties":{"amenity":"place_of_worship","building":"shrine","name":"水角神社本殿"}},
{"type":"Feature","geometry":{"type":"Point","coordinates":[139.7947033,35.9632669]},"properties":{"amenity":"place_of_worship","building":"shrine","name":"水角稲荷神社拝殿","religion":"shinto"}},
{"type":"Feature","geometry":{"type":"Point","coordinates":[139.7946536,35.9632959]},"properties":{"amenity":"place_of_worship","building":"shrine","name":"水角稲荷神社本殿","religion":"shinto"}},
{"type":"Feature","geometry":{"type":"Point","coordinates":[132.6822915,33.0038859]},"properties":{"building":"temple","historic":"wayside_shrine","name":"弁天堂","religion":"buddhist"}},
{"type":"Feature","geometry":{"type":"Point","coordinates":[134.8594186,34.7524639]},"properties":{"building":"shrine","historic":"wayside_shrine","name":"天神社","religion":"shinto"}},
{"type":"Feature","geometry":{"type":"Point","coordinates":[134.8593765,34.7524636]},"properties":{"building":"shrine","historic":"wayside_shrine","name":"稲天神社","religion":"shinto"}},
{"type":"Feature","geometry":{"type":"Point","coordinates":[134.8592481,34.7524647]},"properties":{"building":"shrine","historic":"wayside_shrine","name":"荒神社","religion":"shinto"}},
{"type":"Feature","geometry":{"type":"Point","coordinates":[134.8592068,34.752465]},"properties":{"building":"shrine","historic":"wayside_shrine","name":"山神社","religion":"shinto"}},
{"type":"Feature","geometry":{"type":"Point","coordinates":[134.8592945,34.7524641]},"properties":{"building":"shrine","historic":"wayside_shrine","name":"厳島神社","religion":"shinto"}},
{"type":"Feature","geometry":{"type":"Point","coordinates":[135.2191331,34.7031842]},"properties":{"building":"shrine","historic":"wayside_shrine","name":"白玉稲荷大神","religion":"shinto"}},
{"type":"Feature","geometry":{"type":"Point","coordinates":[140.4504579,40.9113599]},"properties":{"building":"temple","religion":"shinto"}},
{"type":"Feature","geometry":{"type":"Point","coordinates":[140.0167903,35.6836957]},"properties":{"amenity":"place_of_worship","building":"church","religion":"christian"}},
{"type":"Feature","geometry":{"type":"Point","coordinates":[130.3703181,33.5274636]},"properties":{"amenity":"place_of_worship","building":"shrine","name":"油山稲荷","religion":"shinto"}},
{"type":"Feature","geometry":{"type":"Point","coordinates":[135.6891061,34.9361811]},"properties":{"building":"temple","building:levels":"1","building:material":"wood","building:use":"religious","height":"7","name":"乙訓寺本堂","roof:colour":"black","roof:material":"roof_tiles","roof:shape":"pyramidal","ruins":"no"}},
{"type":"Feature","geometry":{"type":"Point","coordinates":[138.2359277,35.9566045]},"properties":{"addr:block_number":"13512","addr:city":"原村","addr:county":"諏訪郡","addr:postcode":"391-0108","addr:province":"長野県","addr:quarter":"中新田","amenity":"place_of_worship","building":"temple","name":"深叢寺","religion":"buddhist"}},
{"type":"Feature","geometry":{"type":"Point","coordinates":[139.688276,35.6748097]},"properties":{"amenity":"place_of_worship","building":"church","denomination":"catholic","name":"カトリック初台教会","religion":"christian"}},
{"type":"Feature","geometry":{"type":"Point","coordinates":[130.3050922,33.5694322]},"properties":{"amenity":"place_of_worship","building":"shrine","name":"熊野神社","religion":"shinto"}},
{"type":"Feature","geometry":{"type":"Point","coordinates":[138.0779854,35.593957]},"properties":{"attraction":"historic","building":"temple","historic":"monument","monument":"yes","name":"圓通殿","name:en":"Entsuden","name:ja":"圓通殿"}},
{"type":"Feature","geometry":{"type":"Point","coordinates":[134.1626061,34.7420589]},"properties":{"amenity":"place_of_worship","building":"shrine","name":"天津神社","religion":"shinto"}},
{"type":"Feature","geometry":{"type":"Point","coordinates":[136.9850604,37.1115419]},"properties":{"amenity":"place_of_worship","building":"temple","landuse":"religious","name":"浄覚寺","religion":"buddhist"}},
{"type":"Feature","geometry":{"type":"Point","coordinates":[136.9988386,37.1359067]},"properties":{"amenity":"place_of_worship","building":"temple","name":"長順寺","religion":"buddhist"}},
{"type":"Feature","geometry":{"type":"Point","coordinates":[136.9977696,37.1347145]},"properties":{"amenity":"place_of_worship","building":"temple","landuse":"residential","name":"福勝寺","religion":"buddhist"}},
{"type":"Feature","geometry":{"type":"Point","coordinates":[136.7956866,36.8626525]},"properties":{"amenity":"place_of_worship","building":"temple","landuse":"religious","name":"千勝寺","religion":"buddhist"}},
{"type":"Feature","geometry":{"type":"Point","coordinates":[136.7944705,36.8642603]},"properties":{"amenity":"place_of_worship","building":"temple","landuse":"religious","name":"唯徳寺","religion":"buddhist"}},
{"type":"Feature","geometry":{"type":"Point","coordinates":[136.7968941,36.8631033]},"properties":{"amenity":"place_of_worship","building":"temple","landuse":"religious","name":"本行寺","religion":"buddhist"}},
{"type":"Feature","geometry":{"type":"Point","coordinates":[136.68802,36.7210476]},"properties":{"amenity":"place_of_worship","building":"temple","landuse":"religious","name":"専長寺","name:ja_rm":"senchoji","religion":"buddhist"}},
{"type":"Feature","geometry":{"type":"Point","coordinates":[136.6890148,36.7202625]},"properties":{"amenity":"place_of_worship","building":"temple","landuse":"religious","name":"龍賢寺","religion":"buddhist"}},
{"type":"Feature","geometry":{"type":"Point","coordinates":[136.7320739,36.6695779]},"properties":{"amenity":"place_of_worship","building":"temple","landuse":"residential","name":"淨真寺","religion":"buddhist"}}
]}
