{"type":"FeatureCollection","features":[
{"type":"Feature","geometry":{"type":"Point","coordinates":[140.4171915,36.1821]},"properties":{"aerodrome:type":"military","aeroway":"aerodrome","ele":"32","landuse":"military","military":"airfield","name:ru":"Аэродром Хякури","operator":"Japan Air Self-Defense Force","wikidata":"Q1156420","wikipedia":"en:Hyakuri Airfield"}},
{"type":"Feature","geometry":{"type":"Point","coordinates":[127.7675,26.3555999]},"properties":{"aerodrome:type":"military","aeroway":"aerodrome","closest_town":"Naha","ele":"44","iata":"DNA","icao":"RODN","name":"嘉手納飛行場","name:en":"Kadena Air Base","name:ja":"嘉手納飛行場","name:ja_rm":"Kadena Hikōjō","name:ru":"Окинава","operator":"United States Air Force","ref":"DNA","source":"wikipedia","wikidata":"Q608289","wikipedia":"ja:嘉手納飛行場","wikipedia:en":"Kadena Air Base"}},
{"type":"Feature","geometry":{"type":"Point","coordinates":[140.4306,37.2272]},"properties":{"KSJ2:AAC":"07207","KSJ2:AAC_label":"福島県, *","KSJ2:AD2":"5","KSJ2:AD2_label":"都道府県","KSJ2:ARP":"37.2275000000 140.4280555556","KSJ2:ATB":"37.2270000000 140.4335278000","KSJ2:CLT":"20 00","KSJ2:COA":"空港整備法に基づく第三種空港","KSJ2:CompositeCurve":"cv27Airport","KSJ2:DSA":"特定飛行場以外","KSJ2:INP":"5","KSJ2:INP_label":"都道府県","KSJ2:IUC":"供用中","KSJ2:NA3":"福島空港","KSJ2:OPT":"08 30","KSJ2:REF":"1","KSJ2:REF_label":"ジェット定期便が就航している場合","KSJ2:airport_id":"cf02_25","KSJ2:runways":"2500 60","addr:housenumber":"福島県石川郡玉川村北須釜はばき田21","aerodrome:type":"public","aeroway":"aerodrome","closest_town":"Sukagawa, Fukushima","contact:phone":"+81 247 57 1111","ele":"372","iata":"FKS","icao":"RJSF","layer":"1","name":"福島空港","name:en":"Fukushima Airport","name:ja":"福島空港","name:ja-Latn":"Fukushima Kūkō","name:ko":"후쿠시마공항","name:ru":"Аэропорт Фукушима","source":"KSJ2;wikipedia","source_ref":"http://nlftp.mlit.go.jp/ksj/jpgis/datalist/KsjTmplt-C28-v1_1.html","website":"https://www.fks-ab.co.jp/","wikidata":"Q177473","wikipedia":"ja:福島空港","wikipedia:en":"Fukushima_Airport"}},
{"type":"Feature","geometry":{"type":"Point","coordinates":[130.718951,31.803187]},"properties":{"KSJ2:AAC":"46218","KSJ2:AAC_label":"鹿児島県, *","KSJ2:AD2":"1","KSJ2:AD2_label":"国土交通大臣","KSJ2:ARP":"31.8033333333 130.7194444444","KSJ2:ATB":"31.8009166700 130.7163056000","KSJ2:CLT":"21 30","KSJ2:COA":"空港整備法に基づく第二種空港","KSJ2:CompositeCurve":"cv79Airport","KSJ2:DSA":"周辺整備空港に指定されていない特定飛行場","KSJ2:INP":"1","KSJ2:INP_label":"国土交通大臣","KSJ2:IUC":"供用中","KSJ2:NA3":"鹿児島空港","KSJ2:OPT":"07 30","KSJ2:REF":"1","KSJ2:REF_label":"ジェット定期便が就航している場合","KSJ2:airport_id":"cf02_44","KSJ2:runways":"3000 45","addr:housenumber":"鹿児島県霧島市溝辺町麓822","aerodrome:type":"public","aeroway":"aerodrome","closest_town":"Kirishima","ele":"276","iata":"KOJ","icao":"RJFK","layer":"1","name":"鹿児島空港","name:en":"Kagoshima Airport","name:ja":"鹿児島空港","name:ja_rm":"Kagoshima Kūkō","name:ko":"가고시마 공항","note":"National-Land Numerical Information (Airport) 2007, MLIT Japan","note:ja":"国土数値情報（空港データ）平成19年　国土交通省","operator":"Ministry of Land, Infrastructure and Transport (airfield)\\nKagoshima Airport Building Co., Ltd. (terminal)","phone":"+81 995-73-3638","source":"KSJ2;wikipedia","source_ref":"http://nlftp.mlit.go.jp/ksj/jpgis/datalist/KsjTmplt-C28-v1_1.html","website":"https://www.koj-ab.co.jp/","wikidata":"Q1156310","wikipedia":"ja:鹿児島空港","wikipedia:en":"Kagoshima Airport"}},
{"type":"Feature","geometry":{"type":"Point","coordinates":[139.3490931,35.7490925]},"properties":{"aerodrome:type":"military","aeroway":"aerodrome","ele":"141","iata":"OKO","icao":"RJTY","name":"横田基地","name:en":"Yokota Air Base","name:ja_rm":"Yokota Kūgun Kichi","name:ru":"Аэродром Йокота","name:zh":"驻日美军横田基地","name_2":"http://upload.wikimedia.org/wikipedia/commons/e/e5/Pacific Air Forces.png","source":"wikipedia","wikidata":"Q1806489","wikipedia":"ja:横田飛行場","wikipedia:en":"Yokota Air Base"}},
{"type":"Feature","geometry":{"type":"Point","coordinates":[139.4113541,35.8429315]},"properties":{"aerodrome:type":"military","aeroway":"aerodrome","ele":"90","icao":"RJTJ","name":"航空自衛隊 入間基地","name:en":"Iruma Air Base","name:ja":"航空自衛隊 入間基地","name:ru":"Аэродром Ирума","operator":"Japan Air Self-Defense Force","source":"wikipedia","wikidata":"Q3015843","wikipedia":"ja:入間基地","wikipedia:en":"Iruma_Air_Base"}},
{"type":"Feature","geometry":{"type":"Point","coordinates":[140.689686,40.7340525]},"properties":{"KSJ2:AAC":"02201","KSJ2:AAC_label":"青森県青森市","KSJ2:AD2":"5","KSJ2:AD2_label":"都道府県","KSJ2:ARP":"40.7333333333 140.6886111111","KSJ2:ATB":"40.7383333300 140.6890000000","KSJ2:CLT":"21 30","KSJ2:COA":"空港整備法に基づく第三種空港","KSJ2:CompositeCurve":"cv16Airport","KSJ2:DSA":"特定飛行場以外","KSJ2:INP":"5","KSJ2:INP_label":"都道府県","KSJ2:IUC":"供用中","KSJ2:NA3":"青森空港","KSJ2:OPT":"07 30","KSJ2:REF":"1","KSJ2:REF_label":"ジェット定期便が就航している場合","KSJ2:airport_id":"cf02_17","KSJ2:runways":"3000 60","addr:housenumber":"青森県青森市大谷小谷1-5","aeroway":"aerodrome","ele":"202","iata":"AOJ","icao":"RJSA","is_in":"Aomori, Japan","layer":"1","name":"青森空港","name:en":"Aomori Airport","name:ja":"青森空港","name:ja_kana":"あおもりくうこう","name:ja_rm":"Aomori Kuko","name:ko":"아오모리공항","name:ru":"Аэропорт Аомори","note":"National-Land Numerical Information (Airport) 2007, MLIT Japan","note:ja":"国土数値情報（空港データ）平成19年　国土交通省","phone":"+81 17 739 2000","source":"KSJ2;wikipedia","source_ref":"http://nlftp.mlit.go.jp/ksj/jpgis/datalist/KsjTmplt-C28-v1_1.html","website":"https://aomori-airport.co.jp/","wikidata":"Q628429","wikipedia":"en:Aomori Airport"}},
{"type":"Feature","geometry":{"type":"Point","coordinates":[139.3606535,34.7827315]},"properties":{"KSJ2:AAC":"13361","KSJ2:AAC_label":"東京都大島大島町","KSJ2:AD2":"5","KSJ2:AD2_label":"都道府県","KSJ2:ARP":"135.4391666667 34.78444444449","KSJ2:ATB":"135.4404444000 34.79136111009","KSJ2:CLT":"16 30","KSJ2:COA":"空港整備法に基づく第三種空港","KSJ2:CompositeCurve":"cv45Airport","KSJ2:DSA":"特定飛行場以外","KSJ2:INP":"5","KSJ2:INP_label":"都道府県","KSJ2:IUC":"供用中","KSJ2:NA3":"大島空港","KSJ2:OPT":"08 30","KSJ2:REF":"1","KSJ2:REF_label":"ジェット定期便が就航している場合","KSJ2:airport_id":"cf02_29","KSJ2:runways":"1800 45","KSJ2:survey_year_LFD_NPD":"1981 7 10,1982 8 10,1983 6 173,1984 7 176,1985 10 179,1986 11 185,1987 10 204,1988 8 192,1989 10 228,1990 11 252,1991 10 321,1992 12 343,1993 10 321,1994 10 332,1995 10 283,1996 10 10,1997 9 289,1998 8 290,1999 9 287,2000 9 301","KSJ2:survey_year_LFD_NPD2":"2001 10 316,2002 10 282,2003 10 274,2003 10 232,2003 10 227","aeroway":"aerodrome","iata":"OIM","icao":"RJTO","layer":"1","name":"大島空港","name:en":"Oshima Airport","name:ja":"大島空港","name:ja_kana":"おおしまくうこう","name:ko":"오시마공항","note":"National-Land Numerical Information (Airport) 2007, MLIT Japan","note:ja":"国土数値情報（空港データ）平成19年　国土交通省","source":"KSJ2","source_ref":"http://nlftp.mlit.go.jp/ksj/jpgis/datalist/KsjTmplt-C28-v1_1.html","wikidata":"Q1196909","wikipedia":"en:Oshima Airport"}},
{"type":"Feature","geometry":{"type":"Point","coordinates":[140.3700953,38.4117427]},"properties":{"KSJ2:AAC":"06211","KSJ2:AAC_label":"山形県東根市","KSJ2:AD2":"5","KSJ2:AD2_label":"都道府県","KSJ2:ARP":"38.4119444444 140.3711111111","KSJ2:ATB":"38.4106666700 140.3663333000","KSJ2:CLT":"19 30","KSJ2:COA":"空港整備法に基づく第二種空港","KSJ2:CompositeCurve":"cv22Airport","KSJ2:DSA":"特定飛行場以外","KSJ2:INP":"1","KSJ2:INP_label":"国土交通大臣","KSJ2:IUC":"供用中","KSJ2:NA3":"山形空港","KSJ2:OPT":"08 00","KSJ2:REF":"1","KSJ2:REF_label":"ジェット定期便が就航している場合","KSJ2:airport_id":"cf02_23","KSJ2:runways":"2000 45","aeroway":"aerodrome","iata":"GAJ","icao":"RJSC","layer":"1","name":"山形空港","name:en":"Yamagata Airport","name:ja":"山形空港","name:ja_rm":"Yamagata Kuko","note":"National-Land Numerical Information (Airport) 2007, MLIT Japan","note:ja":"国土数値情報（空港データ）平成19年　国土交通省","source":"KSJ2","source_ref":"http://nlftp.mlit.go.jp/ksj/jpgis/datalist/KsjTmplt-C28-v1_1.html","wikidata":"Q176187","wikipedia":"ja:山形空港"}},
{"type":"Feature","geometry":{"type":"Point","coordinates":[139.784168,38.8127805]},"properties":{"KSJ2:AAC":"06204","KSJ2:AAC_label":"山形県酒田市","KSJ2:AD2":"5","KSJ2:AD2_label":"都道府県","KSJ2:ARP":"38.8122222222 139.7872222222","KSJ2:ATB":"38.8157500000 139.7876944000","KSJ2:CLT":"22 00","KSJ2:COA":"空港整備法に基づく第三種空港","KSJ2:CompositeCurve":"cv21Airport","KSJ2:DSA":"特定飛行場以外","KSJ2:INP":"5","KSJ2:INP_label":"都道府県","KSJ2:IUC":"供用中","KSJ2:NA3":"庄内空港","KSJ2:OPT":"07 00","KSJ2:REF":"1","KSJ2:REF_label":"ジェット定期便が就航している場合","KSJ2:airport_id":"cf02_22","KSJ2:runways":"2000 45","aeroway":"aerodrome","iata":"SYO","icao":"RJSY","layer":"1","name":"庄内空港","name:en":"Syonai Airport","name:ja":"庄内空港","name:ja_rm":"Syonai Kuko","name:ko":"쇼나이공항","source":"KSJ2","source_ref":"http://nlftp.mlit.go.jp/ksj/jpgis/datalist/KsjTmplt-C28-v1_1.html"}},
{"type":"Feature","geometry":{"type":"Point","coordinates":[128.7051311,27.4314629]},"properties":{"KSJ2:AAC":"46533","KSJ2:AAC_label":"鹿児島県大島郡和泊町","KSJ2:AD2":"5","KSJ2:AD2_label":"都道府県","KSJ2:ARP":"27.4316666667 128.7055555556","KSJ2:ATB":"27.4328214400 128.7043607000","KSJ2:CLT":"18 30","KSJ2:COA":"空港整備法に基づく第三種空港","KSJ2:CompositeCurve":"cv86Airport","KSJ2:DSA":"特定飛行場以外","KSJ2:INP":"5","KSJ2:INP_label":"都道府県","KSJ2:IUC":"供用中","KSJ2:NA3":"沖永良部空港","KSJ2:OPT":"08 30","KSJ2:REF":"2","KSJ2:REF_label":"プロペラ定期便が就航している場合","KSJ2:airport_id":"cf02_55","KSJ2:runways":"1350 45","aeroway":"aerodrome","iata":"OKE","icao":"RJKB","layer":"1","name":"沖永良部空港","name:en":"Okinoerabu Airport","name:ja":"沖永良部空港","name:ja_rm":"Okinoerabu Kuko","name:ko":"오키노에라부공항","note":"National-Land Numerical Information (Airport) 2007, MLIT Japan","note:ja":"国土数値情報（空港データ）平成19年　国土交通省","source":"KSJ2","source_ref":"http://nlftp.mlit.go.jp/ksj/jpgis/datalist/KsjTmplt-C28-v1_1.html","wikidata":"Q2901234","wikipedia":"ja:沖永良部空港"}},
{"type":"Feature","geometry":{"type":"Point","coordinates":[129.7122505,28.431206]},"properties":{"KSJ2:AAC":"46222","KSJ2:AAC_label":"鹿児島県, *","KSJ2:AD2":"5","KSJ2:AD2_label":"都道府県","KSJ2:ARP":"28.4308333333 129.7125000000","KSJ2:ATB":"28.4317222200 129.7082222000","KSJ2:CLT":"19 30","KSJ2:COA":"空港整備法に基づく第三種空港","KSJ2:CompositeCurve":"cv83Airport","KSJ2:DSA":"特定飛行場以外","KSJ2:INP":"5","KSJ2:INP_label":"都道府県","KSJ2:IUC":"供用中","KSJ2:NA3":"奄美空港","KSJ2:OPT":"08 00","KSJ2:REF":"1","KSJ2:REF_label":"ジェット定期便が就航している場合","KSJ2:airport_id":"cf02_97","KSJ2:runways":"2000 45","aeroway":"aerodrome","iata":"ASJ","icao":"RJKA","layer":"1","name":"奄美空港","name:en":"Amami Airport","name:ja":"奄美空港","name:ja_rm":"Amami Kuko","name:ko":"아마미공항","note":"National-Land Numerical Information (Airport) 2007, MLIT Japan","note:ja":"国土数値情報（空港データ）平成19年　国土交通省","source":"KSJ2","source_ref":"http://nlftp.mlit.go.jp/ksj/jpgis/datalist/KsjTmplt-C28-v1_1.html","wikidata":"Q1430769","wikipedia":"ja:奄美空港"}},
{"type":"Feature","geometry":{"type":"Point","coordinates":[131.5054495,33.0265695]},"properties":{"KSJ2:AAC":"44212","KSJ2:AAC_label":"大分県, *","KSJ2:AD2":"5","KSJ2:AD2_label":"都道府県","KSJ2:ARP":"33.0261111111 131.5055555556","KSJ2:ATB":"33.0277777800 131.5024958000","KSJ2:CLT":"16 30","KSJ2:COA":"その他の公共飛行場","KSJ2:CompositeCurve":"cv72Airport","KSJ2:DSA":"特定飛行場以外","KSJ2:INP":"5","KSJ2:INP_label":"都道府県","KSJ2:IUC":"供用中","KSJ2:NA3":"大分県央飛行場","KSJ2:OPT":"09 00","KSJ2:REF":"3","KSJ2:REF_label":"定期便が就航していない場合","KSJ2:airport_id":"cf02_50","KSJ2:runways":"800 25","KSJ2:survey_year_LFD_NPD":"1981 0 3,1982 0 3,1983 0 0,1984 0 0,1985 0 0,1986 0 0,1987 0 0,1988 0 0,1989 0 0,1990 0 0,1991 0 0,1992 0 0,1993 0 0,1994 0 0,1995 0 0,1996 0 0,1997 2 0,1998 3 0,1999 4 0,2000 3 0,2001 3 0,2002 3 0,2003 3 0,2004 3 0,2005 3 0","aeroway":"aerodrome","layer":"1","name":"大分県央空港","name:en":"Oita-Kenou Airport","name:ja":"大分県央空港","name:ja_rm":"Oita-Kenou Hikojo","note":"National-Land Numerical Information (Airport) 2007, MLIT Japan","note:ja":"国土数値情報（空港データ）平成19年　国土交通省","source":"KSJ2","source_ref":"http://nlftp.mlit.go.jp/ksj/jpgis/datalist/KsjTmplt-C28-v1_1.html","wikidata":"Q10933743"}},
{"type":"Feature","geometry":{"type":"Point","coordinates":[129.785263,33.749026]},"properties":{"KSJ2:AAC":"42210","KSJ2:AAC_label":"長崎県壱岐市","KSJ2:AD2":"5","KSJ2:AD2_label":"都道府県","KSJ2:ARP":"33.7491666667 129.7858333333","KSJ2:ATB":"33.7499722200 129.7838611000","KSJ2:CLT":"18 00","KSJ2:COA":"空港整備法に基づく第三種空港","KSJ2:CompositeCurve":"cv64Airport","KSJ2:DSA":"特定飛行場以外","KSJ2:INP":"5","KSJ2:INP_label":"都道府県","KSJ2:IUC":"供用中","KSJ2:NA3":"壱岐空港","KSJ2:OPT":"08 00","KSJ2:REF":"2","KSJ2:REF_label":"プロペラ定期便が就航している場合","KSJ2:airport_id":"cf02_38","KSJ2:runways":"1200 30","aeroway":"aerodrome","iata":"IKI","icao":"RJDB","layer":"1","name":"壱岐空港","name:en":"Iki Airport","name:ja":"壱岐空港","name:ja_rm":"Iki Kuko","name:ko":"이키공항","note":"National-Land Numerical Information (Airport) 2007, MLIT Japan","note:ja":"国土数値情報（空港データ）平成19年　国土交通省","source":"KSJ2","source_ref":"http://nlftp.mlit.go.jp/ksj/jpgis/datalist/KsjTmplt-C28-v1_1.html","wikidata":"Q1038664","wikipedia":"en:Iki Airport"}},
{"type":"Feature","geometry":{"type":"Point","coordinates":[129.3313529,34.284574]},"properties":{"KSJ2:AAC":"42209","KSJ2:AAC_label":"長崎県対馬市","KSJ2:AD2":"5","KSJ2:AD2_label":"都道府県","KSJ2:ARP":"34.2850000000 129.3305555556","KSJ2:ATB":"34.2857809900 129.3262281000","KSJ2:CLT":"19 30","KSJ2:COA":"空港整備法に基づく第三種空港","KSJ2:CompositeCurve":"cv56Airport","KSJ2:DSA":"特定飛行場以外","KSJ2:INP":"5","KSJ2:INP_label":"都道府県","KSJ2:IUC":"供用中","KSJ2:NA3":"対馬空港","KSJ2:OPT":"08 00","KSJ2:REF":"1","KSJ2:REF_label":"ジェット定期便が就航している場合","KSJ2:airport_id":"cf02_39","KSJ2:runways":"1900 45","addr:housenumber":"長崎県対馬市美津島町鶏知乙283","aeroway":"aerodrome","alt_name:ko":"대마공항","iata":"TSJ","icao":"RJDT","layer":"1","name":"対馬空港","name:en":"Tsushima Airport","name:ja":"対馬空港","name:ja_rm":"Tsushima Kuko","name:ko":"쓰시마공항","name:zh":"对马机场","name:zh-Hans":"对马机场","name:zh-Hant":"對馬機場","note":"National-Land Numerical Information (Airport) 2007, MLIT Japan","note:ja":"国土数値情報（空港データ）平成19年　国土交通省","phone":"+81 920-54-3396","source":"KSJ2","source_ref":"http://nlftp.mlit.go.jp/ksj/jpgis/datalist/KsjTmplt-C28-v1_1.html","website":"https://tsushima-airport.co.jp/","wikidata":"Q1134491","wikipedia":"ja:対馬空港"}},
{"type":"Feature","geometry":{"type":"Point","coordinates":[140.192832,36.0348716]},"properties":{"aeroway":"aerodrome","int_name":"kasumigaura","landuse":"military","military":"airfield","name":"霞ヶ浦飛行場","name:en":"Kasumigaura Airport","operator":"Japan Ground Self-Defense Force","ref":"RJAK","source":"ourairports.com","wikidata":"Q6374903","wikipedia":"ja:霞ヶ浦駐屯地"}},
{"type":"Feature","geometry":{"type":"Point","coordinates":[130.4130539,33.3256992]},"properties":{"aeroway":"aerodrome","icao":"RJDM","landuse":"military","military":"airfield","name":"目達原飛行場","name:en":"Metabaru Air Base","name:ja":"目達原飛行場","source":"ourairports.com","wikidata":"Q652293"}},
{"type":"Feature","geometry":{"type":"Point","coordinates":[130.8356581,31.3703561]},"properties":{"aeroway":"aerodrome","icao":"RJFY","landuse":"military","military":"airfield","name":"鹿屋航空基地","name:en":"Kanoya Airport","name:ja":"鹿屋航空基地","source":"ourairports.com","wikidata":"Q8214194"}},
{"type":"Feature","geometry":{"type":"Point","coordinates":[136.8699951,35.3941002]},"properties":{"aeroway":"aerodrome","iata":"QGU","icao":"RJNG","landuse":"military","military":"airfield","name":"航空自衛隊 岐阜基地","name:en":"Gifu Airbase","name:ja":"航空自衛隊 岐阜基地","operator":"Japan Air Self-Defense Force"}},
{"type":"Feature","geometry":{"type":"Point","coordinates":[131.548996,34.0346985]},"properties":{"aeroway":"aerodrome","icao":"RJOF","landuse":"military","military":"airfield","name":"防府北基地","name:en":"Hofu Airport","source":"ourairports.com","wikidata":"Q3274784","wikipedia":"ja:防府北基地"}},
{"type":"Feature","geometry":{"type":"Point","coordinates":[131.052002,34.0452995]},"properties":{"aeroway":"aerodrome","icao":"RJOZ","landuse":"military","military":"airfield","name":"小月航空基地","name:alt":"Ozuki Airport","name:en":"JMSDF Ozuki Air Base","name:ja":"小月航空基地","name:ru":"Симоносеки","source":"ourairports.com","wikidata":"Q7116694","wikipedia":"ja:小月航空基地"}},
{"type":"Feature","geometry":{"type":"Point","coordinates":[141.468868,40.5541994]},"properties":{"aeroway":"aerodrome","iata":"HHE","icao":"RJSH","landuse":"military","military":"airfield","name":"八戸航空基地","name:en":"Hachinohe Airport","source":"ourairports.com","wikidata":"Q2901111","wikipedia":"en:JMSDF Hachinohe Air Base"}},
{"type":"Feature","geometry":{"type":"Point","coordinates":[141.2200012,38.4048996]},"properties":{"aeroway":"aerodrome","icao":"RJST","landuse":"military","military":"airfield","name":"航空自衛隊 松島基地","name:en":"JASDF Matsushima Airbase","name:ja":"航空自衛隊 松島基地","name:ja-Hira":"こうくうじえいたい まつしまきち","source":"ourairports.com","website":"https://www.mod.go.jp/asdf/matsushima/"}},
{"type":"Feature","geometry":{"type":"Point","coordinates":[139.4029999,35.7108002]},"properties":{"aeroway":"aerodrome","icao":"RJTC","landuse":"military","military":"airfield","name":"立川飛行場","name:en":"Tachikawa Airfield","name:ja":"立川飛行場","source":"ourairports.com","wikidata":"Q3275968","wikipedia":"ja:立川飛行場"}},
{"type":"Feature","geometry":{"type":"Point","coordinates":[140.0113449,35.7974387]},"properties":{"aeroway":"aerodrome","icao":"RJTL","landuse":"military","military":"airfield","name":"下総航空基地","name:en":"Shimofusa Airbase","name:ja":"下総航空基地","operator":"JMSDF","source":"ourairports.com"}},
{"type":"Feature","geometry":{"type":"Point","coordinates":[127.7649002,26.7257576]},"properties":{"aeroway":"aerodrome","icao":"RODE","landuse":"military","military":"airfield","name":"米軍伊江島補助飛行場","name:en":"Ie Shima Auxiliary Air Base","name:ja":"米軍伊江島補助飛行場","source":"ourairports.com"}},
{"type":"Feature","geometry":{"type":"Point","coordinates":[127.7557072,26.2731265]},"properties":{"aeroway":"aerodrome","landuse":"military","military":"airfield","name":"普天間飛行場","name:en":"Futenma Marine Corps Air Station","name:ja":"普天間飛行場","source":"ourairports.com","wikidata":"Q1031547"}},
{"type":"Feature","geometry":{"type":"Point","coordinates":[141.8939383,43.546134]},"properties":{"aeroway":"aerodrome","name":"たきかわスカイパーク","name:en":"Takikawa Skypark"}},
{"type":"Feature","geometry":{"type":"Point","coordinates":[138.2958962,34.8128917]},"properties":{"aeroway":"aerodrome","icao":"RJNY","landuse":"military","military":"airfield","name":"静浜基地","name:en":"JASDF Shizuhama Airbase","name:ja":"静浜基地","operator":"航空自衛隊","source":"bing","wikidata":"Q7499477","wikipedia":"ja:静浜基地"}},
{"type":"Feature","geometry":{"type":"Point","coordinates":[140.6716858,42.8314707]},"properties":{"aeroway":"aerodrome","name":"ニセコヘリポート管理事務所"}},
{"type":"Feature","geometry":{"type":"Point","coordinates":[139.5238055,35.9766513]},"properties":{"aeroway":"aerodrome","name":"ホンダエアポート","wikidata":"Q2333597","wikipedia":"ja:ホンダエアポート"}},
{"type":"Feature","geometry":{"type":"Point","coordinates":[130.6544,33.8829218]},"properties":{"aeroway":"aerodrome","icao":"RJFA","landuse":"military","military":"airfield","name":"芦屋飛行場","name:en":"Ashiya Airfield","name:ja":"芦屋飛行場","operator":"JASDF","wikidata":"Q2902639"}},
{"type":"Feature","geometry":{"type":"Point","coordinates":[131.4543682,32.0841222]},"properties":{"aeroway":"aerodrome","icao":"RJFN","landuse":"military","military":"airfield","name":"新田原基地","name:en":"Nyutabaru Airbase","name:ja":"新田原基地","operator":"JASDF","wikidata":"Q3015913"}},
{"type":"Feature","geometry":{"type":"Point","coordinates":[139.8330565,34.987205]},"properties":{"aerodrome:type":"military","aeroway":"aerodrome","ele":"3","icao":"RJTE","name":"館山航空基地","name:en":"Tateyama Airbase","name:ja":"館山航空基地","operator":"JMSDF","wikidata":"Q2901121","wikipedia":"en:JMSDF Tateyama Air Base"}},
{"type":"Feature","geometry":{"type":"Point","coordinates":[141.8588724,43.3898498]},"properties":{"aeroway":"aerodrome","name":"スカイポート美唄","name:en":"Skyport Bibai","name:ja":"スカイポート美唄","operator":"Petair合同会社","website":"https://petair.us/","wikidata":"Q38267002"}},
{"type":"Feature","geometry":{"type":"Point","coordinates":[136.4149211,36.3930068]},"properties":{"aeroway":"aerodrome","iata":"KMQ","icao":"RJNK","landuse":"military","military":"airfield","name":"航空自衛隊小松基地","name:en":"JASDF Komatsu Air Base","website":"https://www.mod.go.jp/asdf/komatsu/","wikidata":"Q1141511","wikipedia":"ja:小松飛行場"}},
{"type":"Feature","geometry":{"type":"Point","coordinates":[138.5301943,35.0145295]},"properties":{"aeroway":"aerodrome","name":"三保飛行場"}},
{"type":"Feature","geometry":{"type":"Point","coordinates":[131.2336315,33.0345084]},"properties":{"aeroway":"aerodrome","name":"久住滑空場","operator":"特定非営利活動法人九州グライダースポーツ連盟","operator:type":"community"}},
{"type":"Feature","geometry":{"type":"Point","coordinates":[142.5118994,43.8752303]},"properties":{"aeroway":"aerodrome","name":"当麻滑空場"}},
{"type":"Feature","geometry":{"type":"Point","coordinates":[131.0973196,33.0082755]},"properties":{"aeroway":"aerodrome","name":"阿蘇場外離着陸場"}},
{"type":"Feature","geometry":{"type":"Point","coordinates":[142.5700437,43.5285684]},"properties":{"aeroway":"aerodrome","name":"美瑛滑空場"}},
{"type":"Feature","geometry":{"type":"Point","coordinates":[141.651851,43.2772461]},"properties":{"aeroway":"aerodrome","name":"新しのつ村滑空場"}},
{"type":"Feature","geometry":{"type":"Point","coordinates":[143.4917049,42.7964838]},"properties":{"aeroway":"aerodrome","name":"MICとよころ飛行場","name:en":"MIC Toyokoro Airfield (historical)"}},
{"type":"Feature","geometry":{"type":"Point","coordinates":[144.0581739,42.9476976]},"properties":{"aeroway":"aerodrome","name":"フライトパーク白糠","name:en":"Shiranuka Flight Park (historical)"}},
{"type":"Feature","geometry":{"type":"Point","coordinates":[136.8143797,34.8589882]},"properties":{"aeroway":"aerodrome","iata":"NGO","icao":"RJGG","name":"中部国際空港","operator":"中部国際空港株式会社","wikidata":"Q679345","wikipedia":"ja:中部国際空港"}},
{"type":"Feature","geometry":{"type":"Point","coordinates":[139.8838205,35.9040774]},"properties":{"aeroway":"aerodrome","name":"流山場外へリポート"}},
{"type":"Feature","geometry":{"type":"Point","coordinates":[140.2734467,35.1787035]},"properties":{"aeroway":"aerodrome","name":"勝浦スカイハーバー","name:en":"Katsuura Sky Harbor"}},
{"type":"Feature","geometry":{"type":"Point","coordinates":[139.9935252,35.9160863]},"properties":{"aeroway":"aerodrome","name":"MFOC守谷飛行場"}},
{"type":"Feature","geometry":{"type":"Point","coordinates":[131.3364325,33.2913905]},"properties":{"aeroway":"aerodrome","name":"日出生台飛行場跡地","name:en":"Hijudai Airfield (historical)"}},
{"type":"Feature","geometry":{"type":"Point","coordinates":[139.3419239,35.7543675]},"properties":{"aeroway":"aerodrome","name":"Yakota Passenger Terminal"}}
]}
